{"type": "FeatureCollection", "features": [{"type": "Feature", "properties": {"norad_id": 22490, "name": "SCD 1", "group": "resource", "lat": 21.492955640621226, "lon": 22.78675030151059, "alt_km": 763.2571113562708, "timestamp": "2025-12-05T05:43:14.770700+00:00", "meta": {"OBJECT_NAME": "SCD 1", "OBJECT_ID": "1993-009B", "EPOCH": "2025-12-04T08:32:53.323008", "MEAN_MOTION": 14.45989788, "ECCENTRICITY": 0.0041788, "INCLINATION": 24.9709, "RA_OF_ASC_NODE": 330.4385, "ARG_OF_PERICENTER": 235.8251, "MEAN_ANOMALY": 262.7821, "EPHEMERIS_TYPE": 0, "CLASSIFICATION_TYPE": "U", "NORAD_CAT_ID": 22490, "ELEMENT_SET_NO": 999, "REV_AT_EPOCH": 73288, "BSTAR": 0.00018125, "MEAN_MOTION_DOT": 8.49e-06, "MEAN_MOTION_DDOT": 0}, "tle": {"line1": "1 22490U 93009B   25338.35617272  .00000849  00000+0  18125-3 0  9992", "line2": "2 22490  24.9709 330.4385 0041788 235.8251 262.7821 14.45989788732889"}}, "geometry": {"type": "Point", "coordinates": [22.78675030151059, 21.492955640621226]}}, {"type": "Feature", "properties": {"norad_id": 25397, "name": "TECHSAT 1B (GO-32)", "group": "resource", "lat": -64.03931887775332, "lon": 123.30042809521358, "alt_km": 819.3556889127321, "timestamp": "2025-12-05T05:43:14.770732+00:00", "meta": {"OBJECT_NAME": "TECHSAT 1B (GO-32)", "OBJECT_ID": "1998-043D", "EPOCH": "2025-12-04T13:23:55.365216", "MEAN_MOTION": 14.24373417, "ECCENTRICITY": 0.0002213, "INCLINATION": 98.9913, "RA_OF_ASC_NODE": 321.5819, "ARG_OF_PERICENTER": 70.8607, "MEAN_ANOMALY": 289.281, "EPHEMERIS_TYPE": 0, "CLASSIFICATION_TYPE": "U", "NORAD_CAT_ID": 25397, "ELEMENT_SET_NO": 999, "REV_AT_EPOCH": 42362, "BSTAR": 9.8436e-05, "MEAN_MOTION_DOT": 1.81e-06, "MEAN_MOTION_DDOT": 0}, "tle": {"line1": "1 25397U 98043D   25338.55827969  .00000181  00000+0  98436-4 0  9995", "line2": "2 25397  98.9913 321.5819 0002213  70.8607 289.2810 14.24373417423625"}}, "geometry": {"type": "Point", "coordinates": [123.30042809521358, -64.03931887775332]}}, {"type": "Feature", "properties": {"norad_id": 25504, "name": "SCD 2", "group": "resource", "lat": 23.70787600644256, "lon": -62.335900157012155, "alt_km": 742.0316795336612, "timestamp": "2025-12-05T05:43:14.770748+00:00", "meta": {"OBJECT_NAME": "SCD 2", "OBJECT_ID": "1998-060A", "EPOCH": "2025-12-03T07:34:14.746944", "MEAN_MOTION": 14.45414838, "ECCENTRICITY": 0.0016689, "INCLINATION": 24.9937, "RA_OF_ASC_NODE": 200.0088, "ARG_OF_PERICENTER": 212.8278, "MEAN_ANOMALY": 308.9112, "EPHEMERIS_TYPE": 0, "CLASSIFICATION_TYPE": "U", "NORAD_CAT_ID": 25504, "ELEMENT_SET_NO": 999, "REV_AT_EPOCH": 43195, "BSTAR": 0.00010911, "MEAN_MOTION_DOT": 5.73e-06, "MEAN_MOTION_DDOT": 0}, "tle": {"line1": "1 25504U 98060A   25337.31544846  .00000573  00000+0  10911-3 0  9993", "line2": "2 25504  24.9937 200.0088 0016689 212.8278 308.9112 14.45414838431958"}}, "geometry": {"type": "Point", "coordinates": [-62.335900157012155, 23.70787600644256]}}, {"type": "Feature", "properties": {"norad_id": 25757, "name": "DLR-TUBSAT", "group": "resource", "lat": 67.64522089954902, "lon": -58.21986943011661, "alt_km": 719.3755017858248, "timestamp": "2025-12-05T05:43:14.770761+00:00", "meta": {"OBJECT_NAME": "DLR-TUBSAT", "OBJECT_ID": "1999-029B", "EPOCH": "2025-12-04T11:12:50.393088", "MEAN_MOTION": 14.52352831, "ECCENTRICITY": 0.0013447, "INCLINATION": 98.6556, "RA_OF_ASC_NODE": 322.726, "ARG_OF_PERICENTER": 218.8178, "MEAN_ANOMALY": 141.2052, "EPHEMERIS_TYPE": 0, "CLASSIFICATION_TYPE": "U", "NORAD_CAT_ID": 25757, "ELEMENT_SET_NO": 999, "REV_AT_EPOCH": 40498, "BSTAR": 8.4989e-05, "MEAN_MOTION_DOT": 2.98e-06, "MEAN_MOTION_DDOT": 0}, "tle": {"line1": "1 25757U 99029B   25338.46724992  .00000298  00000+0  84989-4 0  9999", "line2": "2 25757  98.6556 322.7260 0013447 218.8178 141.2052 14.52352831404987"}}, "geometry": {"type": "Point", "coordinates": [-58.21986943011661, 67.64522089954902]}}, {"type": "Feature", "properties": {"norad_id": 25994, "name": "TERRA", "group": "resource", "lat": -78.82339003078305, "lon": 165.99413943814542, "alt_km": 699.589538540371, "timestamp": "2025-12-05T05:43:14.770773+00:00", "meta": {"OBJECT_NAME": "TERRA", "OBJECT_ID": "1999-068A", "EPOCH": "2025-12-04T15:53:53.424960", "MEAN_MOTION": 14.60938484, "ECCENTRICITY": 0.0003445, "INCLINATION": 97.976, "RA_OF_ASC_NODE": 30.6428, "ARG_OF_PERICENTER": 114.1052, "MEAN_ANOMALY": 0.721, "EPHEMERIS_TYPE": 0, "CLASSIFICATION_TYPE": "U", "NORAD_CAT_ID": 25994, "ELEMENT_SET_NO": 999, "REV_AT_EPOCH": 38120, "BSTAR": 0.00021596, "MEAN_MOTION_DOT": 1.013e-05, "MEAN_MOTION_DDOT": 0}, "tle": {"line1": "1 25994U 99068A   25338.66242390  .00001013  00000+0  21596-3 0  9994", "line2": "2 25994  97.9760  30.6428 0003445 114.1052   0.7210 14.60938484381203"}}, "geometry": {"type": "Point", "coordinates": [165.99413943814542, -78.82339003078305]}}, {"type": "Feature", "properties": {"norad_id": 27004, "name": "MAROC-TUBSAT", "group": "resource", "lat": 5.0409674163491225, "lon": -31.575554734120516, "alt_km": 1004.5131037337142, "timestamp": "2025-12-05T05:43:14.770785+00:00", "meta": {"OBJECT_NAME": "MAROC-TUBSAT", "OBJECT_ID": "2001-056D", "EPOCH": "2025-12-04T16:54:38.056032", "MEAN_MOTION": 13.70252316, "ECCENTRICITY": 0.0019096, "INCLINATION": 99.7911, "RA_OF_ASC_NODE": 147.0089, "ARG_OF_PERICENTER": 281.5446, "MEAN_ANOMALY": 141.824, "EPHEMERIS_TYPE": 0, "CLASSIFICATION_TYPE": "U", "NORAD_CAT_ID": 27004, "ELEMENT_SET_NO": 999, "REV_AT_EPOCH": 19955, "BSTAR": 3.7734e-05, "MEAN_MOTION_DOT": -1.3e-07, "MEAN_MOTION_DDOT": 0}, "tle": {"line1": "1 27004U 01056D   25338.70460713 -.00000013  00000+0  37734-4 0  9996", "line2": "2 27004  99.7911 147.0089 0019096 281.5446 141.8240 13.70252316199554"}}, "geometry": {"type": "Point", "coordinates": [-31.575554734120516, 5.0409674163491225]}}, {"type": "Feature", "properties": {"norad_id": 27424, "name": "AQUA", "group": "resource", "lat": 65.28005367269014, "lon": 138.72270145783645, "alt_km": 680.4604702199786, "timestamp": "2025-12-05T05:43:14.770797+00:00", "meta": {"OBJECT_NAME": "AQUA", "OBJECT_ID": "2002-022A", "EPOCH": "2025-12-04T18:14:38.180832", "MEAN_MOTION": 14.61779372, "ECCENTRICITY": 8.28e-05, "INCLINATION": 98.4023, "RA_OF_ASC_NODE": 299.5099, "ARG_OF_PERICENTER": 110.854, "MEAN_ANOMALY": 7.4292, "EPHEMERIS_TYPE": 0, "CLASSIFICATION_TYPE": "U", "NORAD_CAT_ID": 27424, "ELEMENT_SET_NO": 999, "REV_AT_EPOCH": 25486, "BSTAR": 0.00050742, "MEAN_MOTION_DOT": 2.483e-05, "MEAN_MOTION_DDOT": 0}, "tle": {"line1": "1 27424U 02022A   25338.76016413  .00002483  00000+0  50742-3 0  9991", "line2": "2 27424  98.4023 299.5099 0000828 110.8540   7.4292 14.61779372254863"}}, "geometry": {"type": "Point", "coordinates": [138.72270145783645, 65.28005367269014]}}, {"type": "Feature", "properties": {"norad_id": 28051, "name": "IRS-P6 (RESOURCESAT-1)", "group": "resource", "lat": -47.19035400646364, "lon": 28.96919648077551, "alt_km": 792.8624744387689, "timestamp": "2025-12-05T05:43:14.770809+00:00", "meta": {"OBJECT_NAME": "IRS-P6 (RESOURCESAT-1)", "OBJECT_ID": "2003-046A", "EPOCH": "2025-12-04T18:44:32.142912", "MEAN_MOTION": 14.36069129, "ECCENTRICITY": 0.0063734, "INCLINATION": 98.2189, "RA_OF_ASC_NODE": 19.5565, "ARG_OF_PERICENTER": 204.6423, "MEAN_ANOMALY": 263.4016, "EPHEMERIS_TYPE": 0, "CLASSIFICATION_TYPE": "U", "NORAD_CAT_ID": 28051, "ELEMENT_SET_NO": 999, "REV_AT_EPOCH": 15262, "BSTAR": 0.00015852, "MEAN_MOTION_DOT": 4.31e-06, "MEAN_MOTION_DDOT": 0}, "tle": {"line1": "1 28051U 03046A   25338.78092758  .00000431  00000+0  15852-3 0  9997", "line2": "2 28051  98.2189  19.5565 0063734 204.6423 263.4016 14.36069129152629"}}, "geometry": {"type": "Point", "coordinates": [28.96919648077551, -47.19035400646364]}}, {"type": "Feature", "properties": {"norad_id": 28220, "name": "SHIYAN-1 (SY-1)", "group": "resource", "lat": -45.94300688700194, "lon": -147.90940799040192, "alt_km": 491.5770955291164, "timestamp": "2025-12-05T05:43:14.770821+00:00", "meta": {"OBJECT_NAME": "SHIYAN-1 (SY-1)", "OBJECT_ID": "2004-012A", "EPOCH": "2025-12-04T16:09:27.642240", "MEAN_MOTION": 15.27825198, "ECCENTRICITY": 0.000617, "INCLINATION": 97.8951, "RA_OF_ASC_NODE": 39.7379, "ARG_OF_PERICENTER": 355.3521, "MEAN_ANOMALY": 4.7659, "EPHEMERIS_TYPE": 0, "CLASSIFICATION_TYPE": "U", "NORAD_CAT_ID": 28220, "ELEMENT_SET_NO": 999, "REV_AT_EPOCH": 18133, "BSTAR": 0.00097333, "MEAN_MOTION_DOT": 0.00026446, "MEAN_MOTION_DDOT": 0}, "tle": {"line1": "1 28220U 04012A   25338.67323660  .00026446  00000+0  97333-3 0  9994", "line2": "2 28220  97.8951  39.7379 0006170 355.3521   4.7659 15.27825198181336"}}, "geometry": {"type": "Point", "coordinates": [-147.90940799040192, -45.94300688700194]}}, {"type": "Feature", "properties": {"norad_id": 28376, "name": "AURA", "group": "resource", "lat": -81.41680007714649, "lon": 33.68953931469922, "alt_km": 698.349712557675, "timestamp": "2025-12-05T05:43:14.770832+00:00", "meta": {"OBJECT_NAME": "AURA", "OBJECT_ID": "2004-026A", "EPOCH": "2025-12-04T16:59:30.354144", "MEAN_MOTION": 14.60917064, "ECCENTRICITY": 0.0001135, "INCLINATION": 98.3171, "RA_OF_ASC_NODE": 288.8977, "ARG_OF_PERICENTER": 92.7015, "MEAN_ANOMALY": 267.4315, "EPHEMERIS_TYPE": 0, "CLASSIFICATION_TYPE": "U", "NORAD_CAT_ID": 28376, "ELEMENT_SET_NO": 999, "REV_AT_EPOCH": 13781, "BSTAR": 0.0005147, "MEAN_MOTION_DOT": 2.472e-05, "MEAN_MOTION_DDOT": 0}, "tle": {"line1": "1 28376U 04026A   25338.70799021  .00002472  00000+0  51470-3 0  9998", "line2": "2 28376  98.3171 288.8977 0001135  92.7015 267.4315 14.60917064137816"}}, "geometry": {"type": "Point", "coordinates": [33.68953931469922, -81.41680007714649]}}]}